{"type":"FeatureCollection","features":[{"type":"Feature","properties":{},"geometry":{"type":"Polygon","coordinates":[[[-63.631006,44.662939],[-63.622279,44.67646],[-63.620909,44.676005],[-63.621777,44.674349],[-63.622645,44.674446],[-63.622827,44.673666],[-63.621777,44.673017],[-63.621092,44.673114],[-63.619721,44.674901],[-63.618534,44.67542],[-63.61794,44.675388],[-63.615793,44.676167],[-63.615382,44.676005],[-63.614834,44.675648],[-63.614057,44.676038],[-63.613646,44.676038],[-63.613144,44.675875],[-63.612458,44.675908],[-63.612321,44.676005],[-63.606292,44.674771],[-63.600993,44.673082],[-63.599577,44.671652],[-63.600034,44.671133],[-63.599303,44.671295],[-63.598024,44.670126],[-63.598435,44.669963],[-63.597339,44.669346],[-63.597019,44.668599],[-63.59574,44.668014],[-63.594553,44.667527],[-63.593365,44.666585],[-63.593091,44.66613],[-63.591721,44.665545],[-63.59204,44.665025],[-63.593639,44.66574],[-63.594096,44.66574],[-63.593776,44.665448],[-63.59236,44.664798],[-63.591584,44.664213],[-63.591036,44.663888],[-63.589894,44.663044],[-63.589528,44.663271],[-63.587381,44.661842],[-63.587381,44.661679],[-63.58697,44.661419],[-63.586057,44.660444],[-63.586011,44.66025],[-63.584641,44.660087],[-63.585509,44.660737],[-63.585326,44.660834],[-63.583133,44.659697],[-63.583544,44.659275],[-63.583228,44.658945],[-63.582338,44.659613],[-63.58219,44.659543],[-63.583228,44.658698],[-63.582783,44.658452],[-63.581843,44.659226],[-63.580211,44.658311],[-63.581398,44.657537],[-63.5812,44.657256],[-63.581052,44.65708],[-63.580804,44.656974],[-63.57937,44.657396],[-63.578974,44.65708],[-63.580607,44.656481],[-63.580508,44.655883],[-63.577688,44.656939],[-63.577045,44.65627],[-63.579518,44.65525],[-63.578677,44.654511],[-63.576006,44.655566],[-63.575709,44.65525],[-63.578331,44.6543],[-63.578084,44.654018],[-63.578183,44.653772],[-63.57749,44.653349],[-63.576649,44.653877],[-63.577094,44.653244],[-63.576649,44.653068],[-63.576105,44.653666],[-63.574077,44.652364],[-63.573384,44.652892],[-63.572939,44.652681],[-63.573879,44.652083],[-63.573829,44.65166],[-63.573681,44.65166],[-63.573285,44.651766],[-63.572494,44.651132],[-63.57284,44.650816],[-63.572791,44.650675],[-63.572395,44.650851],[-63.571405,44.64976],[-63.571158,44.649302],[-63.569921,44.649654],[-63.569822,44.649443],[-63.570762,44.649091],[-63.570564,44.648986],[-63.570268,44.648845],[-63.570713,44.648599],[-63.570218,44.648493],[-63.570317,44.648141],[-63.570169,44.647895],[-63.569377,44.648035],[-63.570119,44.647684],[-63.569427,44.647754],[-63.570119,44.647578],[-63.569822,44.647332],[-63.568883,44.647508],[-63.569674,44.647085],[-63.569921,44.646768],[-63.569278,44.646768],[-63.568883,44.646874],[-63.56908,44.646592],[-63.568981,44.646276],[-63.568042,44.646487],[-63.567943,44.646381],[-63.56908,44.645994],[-63.56908,44.645818],[-63.568388,44.645853],[-63.567943,44.645185],[-63.568141,44.644868],[-63.568141,44.644094],[-63.56819,44.643636],[-63.567695,44.643847],[-63.567596,44.643671],[-63.568437,44.643425],[-63.568338,44.643143],[-63.567695,44.643354],[-63.567398,44.642897],[-63.567102,44.642967],[-63.566607,44.641947],[-63.566261,44.642017],[-63.563985,44.636596],[-63.566508,44.635892],[-63.567745,44.635012],[-63.567646,44.634801],[-63.563392,44.635752],[-63.562946,44.634977],[-63.5673,44.633745],[-63.566904,44.6329],[-63.562501,44.633886],[-63.562105,44.633006],[-63.566459,44.63202],[-63.566162,44.631246],[-63.561759,44.632161],[-63.561264,44.631457],[-63.563342,44.630894],[-63.563342,44.630682],[-63.563589,44.630542],[-63.558197,44.624556],[-63.558791,44.62431],[-63.560522,44.625894],[-63.562353,44.625577],[-63.563639,44.62512],[-63.563639,44.624838],[-63.564282,44.624732],[-63.564331,44.62424],[-63.564035,44.623852],[-63.56349,44.62431],[-63.563243,44.623887],[-63.563392,44.623078],[-63.563194,44.62269],[-63.562996,44.622514],[-63.5626,44.621951],[-63.562452,44.621775],[-63.562353,44.621423],[-63.562649,44.620895],[-63.562798,44.620296],[-63.563144,44.619592],[-63.564035,44.619134],[-63.565024,44.618712],[-63.565667,44.61843],[-63.56631,44.618007],[-63.567448,44.61762],[-63.56819,44.617655],[-63.568685,44.617937],[-63.569427,44.618465],[-63.569921,44.618888],[-63.570564,44.619345],[-63.571455,44.619662],[-63.572147,44.619979],[-63.573038,44.619979],[-63.573632,44.620261],[-63.573978,44.620367],[-63.574374,44.620507],[-63.574522,44.620895],[-63.575264,44.621528],[-63.575511,44.62181],[-63.576105,44.622303],[-63.576154,44.622585],[-63.576253,44.622726],[-63.577144,44.623148],[-63.57754,44.623183],[-63.577589,44.623395],[-63.577886,44.624134],[-63.578282,44.624204],[-63.578925,44.624204],[-63.579568,44.624275],[-63.579865,44.624768],[-63.579766,44.624979],[-63.580062,44.625225],[-63.5812,44.625401],[-63.582041,44.626211],[-63.583278,44.626634],[-63.584168,44.626845],[-63.585405,44.627479],[-63.585949,44.627655],[-63.58684,44.627725],[-63.587582,44.627866],[-63.58867,44.628324],[-63.589659,44.628922],[-63.590055,44.629098],[-63.591094,44.629345],[-63.59149,44.629732],[-63.59238,44.630506],[-63.593271,44.631246],[-63.594013,44.631668],[-63.594705,44.631633],[-63.594705,44.631844],[-63.595447,44.63202],[-63.59614,44.632407],[-63.596832,44.632795],[-63.597921,44.632971],[-63.59891,44.633323],[-63.59891,44.633463],[-63.600097,44.633921],[-63.600246,44.634308],[-63.600196,44.634555],[-63.600246,44.634872],[-63.600641,44.635435],[-63.601136,44.635752],[-63.601581,44.635857],[-63.602274,44.635998],[-63.603214,44.636772],[-63.604055,44.637512],[-63.604648,44.637406],[-63.604896,44.637547],[-63.604747,44.637723],[-63.605687,44.638286],[-63.605934,44.638075],[-63.606676,44.63804],[-63.607072,44.63818],[-63.607072,44.638392],[-63.607567,44.638603],[-63.608358,44.638708],[-63.608952,44.638708],[-63.6091,44.638779],[-63.610238,44.63906],[-63.61098,44.638884],[-63.611277,44.639307],[-63.611425,44.639307],[-63.611524,44.639483],[-63.612365,44.639729],[-63.612662,44.639729],[-63.613107,44.639236],[-63.613305,44.639518],[-63.613058,44.6398],[-63.613701,44.63994],[-63.613948,44.63987],[-63.614245,44.640292],[-63.615284,44.640574],[-63.615383,44.640856],[-63.617164,44.641243],[-63.6184,44.641419],[-63.619291,44.641278],[-63.619993,44.641413],[-63.620079,44.641903],[-63.620596,44.642056],[-63.621629,44.642638],[-63.624727,44.644169],[-63.627998,44.645914],[-63.62873,44.646312],[-63.629074,44.646588],[-63.629376,44.647476],[-63.629505,44.648119],[-63.629548,44.648517],[-63.629978,44.649068],[-63.630495,44.64965],[-63.630667,44.650078],[-63.630667,44.650721],[-63.630279,44.652956],[-63.629806,44.655161],[-63.629031,44.658467],[-63.628515,44.659998],[-63.62774,44.661039],[-63.627998,44.661774],[-63.628902,44.662171],[-63.629935,44.662569],[-63.631006,44.662939]]]}}]}